CUTE-1 (CO-55)          
1 27844U 03031E   25014.02697740  .00000572  00000+0  26926-3 0  9990
2 27844  98.6778  24.1963 0008668 251.0744 108.9495 14.23763659117818
CUBESAT XI-IV (CO-57)   
1 27848U 03031J   25013.97873810  .00000478  00000+0  23087-3 0  9991
2 27848  98.6808  24.2614 0008505 270.3859  89.6345 14.23132351117561
CUBESAT XI-V            
1 28895U 05043F   25013.81677721  .00002578  00000+0  43851-3 0  9999
2 28895  98.2257 156.6480 0015746  54.2948 305.9720 14.69907362 25372
CUTE-1.7+APD II (CO-65) 
1 32785U 08021C   25013.68790938  .00006483  00000+0  50464-3 0  9999
2 32785  97.7683 344.2346 0009814  10.3282 349.8142 15.01553670907012
AAUSAT-II               
1 32788U 08021F   25014.44965923  .00066475  00000+0  15519-2 0  9993
2 32788  97.6048   4.6900 0006486 112.9826 247.2105 15.41948456910677
CANX-2                  
1 32790U 08021H   25013.87616536  .00005396  00000+0  44543-3 0  9990
2 32790  97.7980 342.9734 0012188   1.2306 358.8944 14.99354540906894
SEEDS II (CO-66)        
1 32791U 08021J   25013.37153121  .00015316  00000+0  87981-3 0  9998
2 32791  97.7132 350.9088 0003507 345.7269  14.3862 15.12601954908192
SWISSCUBE               
1 35932U 09051B   25013.93387874  .00001915  00000+0  40389-3 0  9999
2 35932  98.4474 267.3515 0007866  33.9014 326.2687 14.60599752813303
BEESAT-1                
1 35933U 09051C   25013.51156065  .00001690  00000+0  36140-3 0  9990
2 35933  98.4404 267.5260 0006464  48.0138 312.1611 14.60120811813388
ITUPSAT1                
1 35935U 09051E   25013.68390192  .00001552  00000+0  34093-3 0  9993
2 35935  98.4499 267.3563 0008783  52.6227 307.5770 14.58969868812949
TISAT 1                 
1 36799U 10035E   25013.66649366  .00013533  00000+0  81733-3 0  9999
2 36799  98.0704 279.1400 0001895 227.9563 132.1504 15.10832651788746
AEROCUBE 4.5A           
1 38767U 12048K   25013.64695850  .00031409  00000+0  11287-2 0  9997
2 38767  64.6530 351.5566 0109519 314.0959  45.1191 15.22950429292366
AEROCUBE 4.5B           
1 38768U 12048L   25014.03795296  .00129972  00000+0  12059-2 0  9998
2 38768  64.6397 249.7114 0052950 299.9043  59.6850 15.64989422293898
STRAND-1                
1 39090U 13009E   25013.44909957  .00000643  00000+0  23323-3 0  9990
2 39090  98.3771 202.0281 0008592 351.7245   8.3799 14.36578972622428
BRITE-AUSTRIA           
1 39091U 13009F   25013.75442580  .00000385  00000+0  14658-3 0  9993
2 39091  98.3823 201.5965 0010212 357.6361   2.4775 14.36149113622482
NEE-01 PEGASO           
1 39151U 13018B   25014.32491732  .00004173  00000+0  44818-3 0  9997
2 39151  98.0541 140.2756 0014920  71.2666 289.0168 14.89060927633368
ESTCUBE 1               
1 39161U 13021C   25014.43882637  .00002930  00000+0  40669-3 0  9991
2 39161  97.8030  80.4851 0007342 264.4771  95.5603 14.78634591628329
POPACS 1                
1 39268U 13055D   25014.09944357  .00046869 -48822-6  57615-3 0  9996
2 39268  80.9775 264.5665 0313808 120.7713 242.4818 15.18596249593729
POPACS 2                
1 39269U 13055E   25014.00022351  .00024781  00000+0  51726-3 0  9993
2 39269  80.9978   8.6763 0507880  35.0120 328.3379 14.67978525587628
POPACS 3                
1 39270U 13055F   25013.84123471  .00014171  00000+0  37186-3 0  9997
2 39270  81.0059  67.2236 0601872 198.2348 159.6411 14.43426474563281
ZACUBE-1 (TSHEPISOSAT)  
1 39417U 13066B   25013.78428469  .00004927  00000+0  45838-3 0  9991
2 39417  97.7624 332.0222 0046157 179.7081 180.4174 14.93965594602975
WNISAT-1                
1 39423U 13066H   25014.09049713  .00001065  00000+0  20631-3 0  9998
2 39423  97.6655 197.4703 0168227  66.6302 295.2493 14.56479564591337
TRITON-1                
1 39427U 13066M   25014.40707980  .00003469  00000+0  45707-3 0  9995
2 39427  97.8423 292.0127 0098571 119.7827 241.3231 14.77375152597557
DELFI-N3XT              
1 39428U 13066N   25013.70457455  .00007315  00000+0  80853-3 0  9992
2 39428  97.8387 293.3633 0091868 122.2840 238.7316 14.84616920597259
GOMX-1                  
1 39430U 13066Q   25014.46907599  .00003811  00000+0  60999-3 0  9994
2 39430  97.7018 242.0136 0133931 300.1180  58.6805 14.66488682593983
CUBEBUG-2 (LO-74)       
1 39440U 13066AA  25013.56550996  .00006447  00000+0  68941-3 0  9993
2 39440  97.8353 319.5234 0063538 305.6561  53.8749 14.87602246599565
NEE-02 KRYSAOR          
1 39441U 13066AB  25014.37755355  .00005070  00000+0  60527-3 0  9993
2 39441  97.8438 315.1663 0070110 329.3285  30.3838 14.82918122600366
FUNCUBE-1 (AO-73)       
1 39444U 13066AE  25014.44422643  .00009493  00000+0  78439-3 0  9999
2 39444  97.7482 336.5579 0043751 152.5486 207.8061 14.98408407602267
UWE-3                   
1 39446U 13066AG  25014.38390125  .00006003  00000+0  60370-3 0  9992
2 39446  97.8073 326.5259 0054157 242.9013 116.6675 14.90496123600701
BRITE-CA1 (TORONTO)     
1 40020U 14033L   25014.35511006  .00002243  00000+0  35577-3 0  9990
2 40020  97.9025 150.6434 0081942 136.8309 223.9361 14.70906765566005
DUCHIFAT-1              
1 40021U 14033M   25013.72619448  .00019683  00000+0  93558-3 0  9999
2 40021  98.1001  16.3197 0012693 100.4150 259.8514 15.19183114575956
NANOSATC-BR1            
1 40024U 14033Q   25013.90095477  .00014907  00000+0  86465-3 0  9995
2 40024  98.0834   2.3666 0005577 155.5655 204.5839 15.12261495574994
QB50P1                  
1 40025U 14033R   25014.42523830  .00010130  00000+0  69192-3 0  9995
2 40025  98.0678 349.4643 0011136 179.8666 180.2565 15.06334820575117
QB50P2                  
1 40032U 14033Y   25013.33870587  .00009115  00000+0  65312-3 0  9997
2 40032  98.0265 338.4575 0010627 128.7541 231.4636 15.04579648574202
PERSEUS-M2              
1 40037U 14033AD  25014.42242509  .00003069  00000+0  30343-3 0  9998
2 40037  97.9440 312.4231 0011618 212.2920 147.7588 14.92616244573813
PERSEUS-M1              
1 40039U 14033AF  25014.40376194  .00003125  00000+0  30961-3 0  9995
2 40039  97.9206 307.8300 0011434 211.5633 148.4901 14.92523258573672
POLYITAN-1              
1 40042U 14033AJ  25014.45684038  .00015481  00000+0  90275-3 0  9995
2 40042  98.0926 355.1336 0012545 130.9100 229.3218 15.12006320575164
TIGRISAT                
1 40043U 14033AK  25013.98762915  .00003141  00000+0  39760-3 0  9996
2 40043  97.7129 174.2909 0052366 337.0670  22.8205 14.81534491568949
AEROCUBE 6A             
1 40045U 14033AM  25014.01531472  .00008224  00000+0  86339-3 0  9996
2 40045  97.6767 186.1408 0045070 307.7241  51.9895 14.88989127569346
AEROCUBE 6B             
1 40046U 14033AN  25014.45494339  .00008486  00000+0  86861-3 0  9995
2 40046  97.6742 185.4925 0043773 300.4102  59.2794 14.90036912569628
CANX-4                  
1 40055U 14034C   25014.50851135  .00002058  00000+0  28242-3 0  9991
2 40055  98.3762 224.1128 0012115 233.2120 126.7979 14.79526144567815
CANX-5                  
1 40056U 14034D   25013.63300732  .00001921  00000+0  26412-3 0  9992
2 40056  98.3765 223.2145 0012082 236.3985 123.6073 14.79533612558464
UKUBE-1                 
1 40074U 14037F   25014.41189762  .00012342  00000+0  97221-3 0  9995
2 40074  98.3720 324.6061 0003007  72.2297 287.9253 15.00949533570385
BRITE-PL2 (HEWELIUSZ)   
1 40119U 14049B   25014.21688212  .00003331  00000+0  33953-3 0  9990
2 40119  97.8858 119.3553 0015631  32.8617 327.3570 14.91284183564094
AEROCUBE 5C             
1 40965U 15058B   25013.59072980  .00006743  00000+0  57222-3 0  9994
2 40965  64.7696  73.9882 0183571 245.4944 112.6930 14.86527524288260
AEROCUBE 7              
1 40966U 15058C   25013.61998010  .00008114  00000+0  64989-3 0  9991
2 40966  64.7659  65.3095 0176643 245.2440 113.0202 14.89279489288390
FOX-1A (AO-85)          
1 40967U 15058D   25013.59804147  .00006925  00000+0  60120-3 0  9997
2 40967  64.7773  88.6010 0180939 241.0840 117.2018 14.85985636 36211
SINOD-D 1               
1 40968U 15058E   25014.16038952  .00009259  00000+0  75239-3 0  9995
2 40968  64.7772  77.1376 0172586 239.9701 118.4194 14.89125585 39179
SNAP-3 ALICE            
1 40970U 15058G   25013.74113530  .00028683  00000+0  14548-2 0  9994
2 40970  64.7671  19.4175 0124339 239.1479 119.7364 15.10278248 37411
LMRST-SAT               
1 40971U 15058H   25013.71879614  .00006539  00000+0  56744-3 0  9995
2 40971  64.7773  83.8228 0182607 242.4395 115.8062 14.85862055 36232
SNAP-3 EDDIE            
1 40972U 15058J   25013.95975608  .00025380  00000+0  12749-2 0  9993
2 40972  64.7646  11.6473 0124485 239.9970 118.8752 15.10635881 39554
PROPCUBE 3              
1 40973U 15058K   25014.12064505  .00008116  00000+0  66365-3 0  9991
2 40973  64.7705  68.1452 0178111 243.8678 114.4016 14.88354636 37372
BISONSAT                
1 40974U 15058L   25013.79444540  .00016956  00000+0  10751-2 0  9993
2 40974  64.7654  33.9907 0148430 242.0933 116.5087 15.00315571 37255
SNAP-3 JIMI             
1 40975U 15058M   25013.52167463  .00011122  00000+0  82037-3 0  9998
2 40975  64.7683  54.0781 0165806 243.2035 115.2038 14.93261801 36364
PROPCUBE 1 (FLORA)      
1 40976U 15058N   25013.68414937  .00006479  00000+0  58417-3 0  9991
2 40976  64.7764 100.5799 0181820 243.8508 114.3801 14.84556986 39009
SINOD-D 3               
1 40977U 15058P   25014.19921530  .00009127  00000+0  77025-3 0  9990
2 40977  64.7747  89.7928 0173469 243.0227 115.3078 14.87655684 37365
HORYU-4                 
1 41340U 16012D   25013.40867351  .00023078  00000+0  82419-3 0  9993
2 41340  30.9994  35.0011 0006208 320.3249  39.6940 15.27637171490191
RAVAN                   
1 41849U 16067B   25013.82298126  .00018892  00000+0  78844-3 0  9996
2 41849  98.0548 211.2804 0011213  30.5296 329.6590 15.23664109447942
CELTEE 1                
1 41850U 16067C   25014.50302225  .00007934  00000+0  47024-3 0  9991
2 41850  98.1060 201.8332 0000995 131.6450 228.4864 15.11682157447293
